CZ-4B R/B               
1 28059U 03049C   26095.95924068  .00000465  00000+0  11800-3 0  9992
2 28059  98.6899  91.9388 0048751 147.3463 213.0764 14.55046213190561
CZ-2C R/B               
1 28222U 04012C   26096.14604702  .00072524  00000+0  64618-3 0  9997
2 28222  97.7157 164.1029 0013764 203.1929 156.8712 15.68117504208574
SL-16 R/B               
1 28353U 04021B   26096.24708219  .00000355  00000+0  20958-3 0  9993
2 28353  71.0013 174.6635 0005556 334.8459  25.2392 14.14601381126735
CZ-4B R/B               
1 28415U 04035C   26096.06319596  .00008775  00000+0  30449-3 0  9993
2 28415  97.3447 129.9799 0030421 229.1475 130.7129 15.29577723184095
CZ-2C R/B               
1 28480U 04046B   26096.25230585  .00000244  00000+0  10516-3 0  9994
2 28480  98.1974   9.5187 0140581  73.5041 288.1534 14.27003663112435
ARIANE 5 R/B            
1 28499U 04049H   26096.05115904  .00001231  00000+0  14191-3 0  9992
2 28499  98.2666 265.5404 0082819 262.2921  96.8882 14.85322078149857
CZ-2D R/B               
1 28738U 05024B   26096.01037763  .00051187  00000+0  56666-3 0  9992
2 28738  97.3565 112.2077 0001860 263.7300  96.3746 15.62850599144049
ALOS (DAICHI)           
1 28931U 06002A   26096.27746923  .00001714  00000+0  29468-3 0  9998
2 28931  98.1265  52.1045 0001211 116.4293 243.7037 14.69902011 77535
H-2A R/B                
1 28932U 06002B   26095.98794815  .00011954  00000+0  58586-3 0  9999
2 28932  98.2467 245.3804 0052488 148.0215 212.4220 15.17086767 98576
RESURS-DK 1             
1 29228U 06021A   26096.23975716  .00002793  00000+0  16427-3 0  9998
2 29228  69.9328 165.7543 0002120  30.6652 329.4637 15.12921606 91692
CZ-4B R/B               
1 29507U 06046C   26096.11440821  .00005533  00000+0  27788-3 0  9993
2 29507  97.5533 140.9465 0033468 169.7592 190.4330 15.17208756 64203
CZ-2C R/B               
1 31114U 07010B   26096.27194209  .00000194  00000+0  10807-3 0  9997
2 31114  98.4006 208.1720 0058433 213.0295 146.7227 14.20257138983635
COSMO-SKYMED 1          
1 31598U 07023A   26096.27669683  .00004881  00000+0  43196-3 0  9994
2 31598  97.8878 287.5342 0001709  97.6661 262.4754 14.96755827 19035
COSMOS 2428             
1 31792U 07029A   26096.21555171 -.00000054  00000+0 -32646-5 0  9996
2 31792  70.9419 145.5717 0009688 248.3886 111.6204 14.12948966967988
SL-16 R/B               
1 31793U 07029B   26096.28155148 -.00000156  00000+0 -56146-4 0  9997
2 31793  70.9736 114.3854 0002923 276.1330 161.8801 14.14843728969271
KORONAS-FOTON           
1 33504U 09003A   26095.92479121  .00014945  00000+0  32483-3 0  9999
2 33504  82.4290 247.5430 0011372  60.7919 299.4465 15.44130151949942
