[ {"OBJECT_NAME": "CZ-4B R/B", "OBJECT_ID": "2003-049C", "EPOCH": "2026-04-05T23:01:18.394752", "MEAN_MOTION": 14.55046213, "ECCENTRICITY": 0.00487517, "INCLINATION": 98.6899, "RA_OF_ASC_NODE": 91.9388, "ARG_OF_PERICENTER": 147.3463, "MEAN_ANOMALY": 213.0764, "EPHEMERIS_TYPE": 0, "CLASSIFICATION_TYPE": "U", "NORAD_CAT_ID": 28059, "ELEMENT_SET_NO": 999, "REV_AT_EPOCH": 19056, "BSTAR": 0.00011800454, "MEAN_MOTION_DOT": 4.65e-06, "MEAN_MOTION_DDOT": 0}, {"OBJECT_NAME": "CZ-2C R/B", "OBJECT_ID": "2004-012C", "EPOCH": "2026-04-06T03:30:18.462528", "MEAN_MOTION": 15.68117504, "ECCENTRICITY": 0.00137645, "INCLINATION": 97.7157, "RA_OF_ASC_NODE": 164.1029, "ARG_OF_PERICENTER": 203.1929, "MEAN_ANOMALY": 156.8712, "EPHEMERIS_TYPE": 0, "CLASSIFICATION_TYPE": "U", "NORAD_CAT_ID": 28222, "ELEMENT_SET_NO": 999, "REV_AT_EPOCH": 20857, "BSTAR": 0.00064618139, "MEAN_MOTION_DOT": 0.00072524, "MEAN_MOTION_DDOT": 0}, {"OBJECT_NAME": "SL-16 R/B", "OBJECT_ID": "2004-021B", "EPOCH": "2026-04-06T05:55:47.901216", "MEAN_MOTION": 14.14601381, "ECCENTRICITY": 0.00055566, "INCLINATION": 71.0013, "RA_OF_ASC_NODE": 174.6635, "ARG_OF_PERICENTER": 334.8459, "MEAN_ANOMALY": 25.2392, "EPHEMERIS_TYPE": 0, "CLASSIFICATION_TYPE": "U", "NORAD_CAT_ID": 28353, "ELEMENT_SET_NO": 999, "REV_AT_EPOCH": 12673, "BSTAR": 0.0002095761, "MEAN_MOTION_DOT": 3.55e-06, "MEAN_MOTION_DDOT": 0}, {"OBJECT_NAME": "CZ-4B R/B", "OBJECT_ID": "2004-035C", "EPOCH": "2026-04-06T01:31:00.130944", "MEAN_MOTION": 15.29577723, "ECCENTRICITY": 0.00304218, "INCLINATION": 97.3447, "RA_OF_ASC_NODE": 129.9799, "ARG_OF_PERICENTER": 229.1475, "MEAN_ANOMALY": 130.7129, "EPHEMERIS_TYPE": 0, "CLASSIFICATION_TYPE": "U", "NORAD_CAT_ID": 28415, "ELEMENT_SET_NO": 999, "REV_AT_EPOCH": 18409, "BSTAR": 0.00030449068, "MEAN_MOTION_DOT": 8.775e-05, "MEAN_MOTION_DDOT": 0}, {"OBJECT_NAME": "CZ-2C R/B", "OBJECT_ID": "2004-046B", "EPOCH": "2026-04-06T06:03:19.225440", "MEAN_MOTION": 14.27003663, "ECCENTRICITY": 0.0140581, "INCLINATION": 98.1974, "RA_OF_ASC_NODE": 9.5187, "ARG_OF_PERICENTER": 73.5041, "MEAN_ANOMALY": 288.1534, "EPHEMERIS_TYPE": 0, "CLASSIFICATION_TYPE": "U", "NORAD_CAT_ID": 28480, "ELEMENT_SET_NO": 999, "REV_AT_EPOCH": 11243, "BSTAR": 0.00010516439, "MEAN_MOTION_DOT": 2.44e-06, "MEAN_MOTION_DDOT": 0}, {"OBJECT_NAME": "ARIANE 5 R/B", "OBJECT_ID": "2004-049H", "EPOCH": "2026-04-06T01:13:40.141056", "MEAN_MOTION": 14.85322078, "ECCENTRICITY": 0.00828194, "INCLINATION": 98.2666, "RA_OF_ASC_NODE": 265.5404, "ARG_OF_PERICENTER": 262.2921, "MEAN_ANOMALY": 96.8882, "EPHEMERIS_TYPE": 0, "CLASSIFICATION_TYPE": "U", "NORAD_CAT_ID": 28499, "ELEMENT_SET_NO": 999, "REV_AT_EPOCH": 14985, "BSTAR": 0.0001419123, "MEAN_MOTION_DOT": 1.231e-05, "MEAN_MOTION_DDOT": 0}, {"OBJECT_NAME": "CZ-2D R/B", "OBJECT_ID": "2005-024B", "EPOCH": "2026-04-06T00:14:56.627232", "MEAN_MOTION": 15.62850599, "ECCENTRICITY": 0.00018602, "INCLINATION": 97.3565, "RA_OF_ASC_NODE": 112.2077, "ARG_OF_PERICENTER": 263.73, "MEAN_ANOMALY": 96.3746, "EPHEMERIS_TYPE": 0, "CLASSIFICATION_TYPE": "U", "NORAD_CAT_ID": 28738, "ELEMENT_SET_NO": 999, "REV_AT_EPOCH": 14404, "BSTAR": 0.00056666407, "MEAN_MOTION_DOT": 0.00051187, "MEAN_MOTION_DDOT": 0}, {"OBJECT_NAME": "ALOS (DAICHI)", "OBJECT_ID": "2006-002A", "EPOCH": "2026-04-06T06:39:33.341472", "MEAN_MOTION": 14.69902011, "ECCENTRICITY": 0.00012112, "INCLINATION": 98.1265, "RA_OF_ASC_NODE": 52.1045, "ARG_OF_PERICENTER": 116.4293, "MEAN_ANOMALY": 243.7037, "EPHEMERIS_TYPE": 0, "CLASSIFICATION_TYPE": "U", "NORAD_CAT_ID": 28931, "ELEMENT_SET_NO": 999, "REV_AT_EPOCH": 7753, "BSTAR": 0.00029467828, "MEAN_MOTION_DOT": 1.714e-05, "MEAN_MOTION_DDOT": 0}, {"OBJECT_NAME": "H-2A R/B", "OBJECT_ID": "2006-002B", "EPOCH": "2026-04-05T23:42:38.720160", "MEAN_MOTION": 15.17086767, "ECCENTRICITY": 0.0052488, "INCLINATION": 98.2467, "RA_OF_ASC_NODE": 245.3804, "ARG_OF_PERICENTER": 148.0215, "MEAN_ANOMALY": 212.422, "EPHEMERIS_TYPE": 0, "CLASSIFICATION_TYPE": "U", "NORAD_CAT_ID": 28932, "ELEMENT_SET_NO": 999, "REV_AT_EPOCH": 9857, "BSTAR": 0.00058585841, "MEAN_MOTION_DOT": 0.00011954, "MEAN_MOTION_DDOT": 0}, {"OBJECT_NAME": "RESURS-DK 1", "OBJECT_ID": "2006-021A", "EPOCH": "2026-04-06T05:45:15.018624", "MEAN_MOTION": 15.12921606, "ECCENTRICITY": 0.00021202, "INCLINATION": 69.9328, "RA_OF_ASC_NODE": 165.7543, "ARG_OF_PERICENTER": 30.6652, "MEAN_ANOMALY": 329.4637, "EPHEMERIS_TYPE": 0, "CLASSIFICATION_TYPE": "U", "NORAD_CAT_ID": 29228, "ELEMENT_SET_NO": 999, "REV_AT_EPOCH": 9169, "BSTAR": 0.00016427199, "MEAN_MOTION_DOT": 2.793e-05, "MEAN_MOTION_DDOT": 0}, {"OBJECT_NAME": "CZ-4B R/B", "OBJECT_ID": "2006-046C", "EPOCH": "2026-04-06T02:44:44.869344", "MEAN_MOTION": 15.17208756, "ECCENTRICITY": 0.00334682, "INCLINATION": 97.5533, "RA_OF_ASC_NODE": 140.9465, "ARG_OF_PERICENTER": 169.7592, "MEAN_ANOMALY": 190.433, "EPHEMERIS_TYPE": 0, "CLASSIFICATION_TYPE": "U", "NORAD_CAT_ID": 29507, "ELEMENT_SET_NO": 999, "REV_AT_EPOCH": 6420, "BSTAR": 0.00027788161, "MEAN_MOTION_DOT": 5.533e-05, "MEAN_MOTION_DDOT": 0}, {"OBJECT_NAME": "CZ-2C R/B", "OBJECT_ID": "2007-010B", "EPOCH": "2026-04-06T06:31:35.796576", "MEAN_MOTION": 14.20257138, "ECCENTRICITY": 0.00584337, "INCLINATION": 98.4006, "RA_OF_ASC_NODE": 208.172, "ARG_OF_PERICENTER": 213.0295, "MEAN_ANOMALY": 146.7227, "EPHEMERIS_TYPE": 0, "CLASSIFICATION_TYPE": "U", "NORAD_CAT_ID": 31114, "ELEMENT_SET_NO": 999, "REV_AT_EPOCH": 98363, "BSTAR": 0.00010806862, "MEAN_MOTION_DOT": 1.94e-06, "MEAN_MOTION_DDOT": 0}, {"OBJECT_NAME": "COSMO-SKYMED 1", "OBJECT_ID": "2007-023A", "EPOCH": "2026-04-06T06:38:26.606112", "MEAN_MOTION": 14.96755827, "ECCENTRICITY": 0.00017092, "INCLINATION": 97.8878, "RA_OF_ASC_NODE": 287.5342, "ARG_OF_PERICENTER": 97.6661, "MEAN_ANOMALY": 262.4754, "EPHEMERIS_TYPE": 0, "CLASSIFICATION_TYPE": "U", "NORAD_CAT_ID": 31598, "ELEMENT_SET_NO": 999, "REV_AT_EPOCH": 1903, "BSTAR": 0.00043195829, "MEAN_MOTION_DOT": 4.881e-05, "MEAN_MOTION_DDOT": 0}, {"OBJECT_NAME": "COSMOS 2428", "OBJECT_ID": "2007-029A", "EPOCH": "2026-04-06T05:10:23.667744", "MEAN_MOTION": 14.12948966, "ECCENTRICITY": 0.00096881, "INCLINATION": 70.9419, "RA_OF_ASC_NODE": 145.5717, "ARG_OF_PERICENTER": 248.3886, "MEAN_ANOMALY": 111.6204, "EPHEMERIS_TYPE": 0, "CLASSIFICATION_TYPE": "U", "NORAD_CAT_ID": 31792, "ELEMENT_SET_NO": 999, "REV_AT_EPOCH": 96798, "BSTAR": -3.264595e-06, "MEAN_MOTION_DOT": -5.4e-07, "MEAN_MOTION_DDOT": 0}, {"OBJECT_NAME": "SL-16 R/B", "OBJECT_ID": "2007-029B", "EPOCH": "2026-04-06T06:45:26.047872", "MEAN_MOTION": 14.14843728, "ECCENTRICITY": 0.00029239, "INCLINATION": 70.9736, "RA_OF_ASC_NODE": 114.3854, "ARG_OF_PERICENTER": 276.133, "MEAN_ANOMALY": 161.8801, "EPHEMERIS_TYPE": 0, "CLASSIFICATION_TYPE": "U", "NORAD_CAT_ID": 31793, "ELEMENT_SET_NO": 999, "REV_AT_EPOCH": 96927, "BSTAR": -5.6146149e-05, "MEAN_MOTION_DOT": -1.56e-06, "MEAN_MOTION_DDOT": 0}, {"OBJECT_NAME": "KORONAS-FOTON", "OBJECT_ID": "2009-003A", "EPOCH": "2026-04-05T22:11:41.960544", "MEAN_MOTION": 15.44130151, "ECCENTRICITY": 0.00113721, "INCLINATION": 82.429, "RA_OF_ASC_NODE": 247.543, "ARG_OF_PERICENTER": 60.7919, "MEAN_ANOMALY": 299.4465, "EPHEMERIS_TYPE": 0, "CLASSIFICATION_TYPE": "U", "NORAD_CAT_ID": 33504, "ELEMENT_SET_NO": 999, "REV_AT_EPOCH": 94994, "BSTAR": 0.00032482689, "MEAN_MOTION_DOT": 0.00014945, "MEAN_MOTION_DDOT": 0}]